{"type": "FeatureCollection", "features": [ {"type": "Feature", "properties": {"norad_id": 33870, "name": "IRIDIUM 33 DEB", "group": "iridium-33-debris", "lat": -10.629714220518402, "lon": 52.1476899278093, "alt_km": 757.1016807652422, "timestamp": "2025-12-25T09:48:52.674395+00:00", "meta": {"OBJECT_NAME": "IRIDIUM 33 DEB", "OBJECT_ID": "1997-051AP", "EPOCH": "2025-12-25T03:29:04.993152", "MEAN_MOTION": 14.45911312, "ECCENTRICITY": 0.0022642, "INCLINATION": 86.3733, "RA_OF_ASC_NODE": 52.9428, "ARG_OF_PERICENTER": 138.8242, "MEAN_ANOMALY": 278.7833, "EPHEMERIS_TYPE": 0, "CLASSIFICATION_TYPE": "U", "NORAD_CAT_ID": 33870, "ELEMENT_SET_NO": 999, "REV_AT_EPOCH": 88316, "BSTAR": 0.00071897, "MEAN_MOTION_DOT": 2.583e-05, "MEAN_MOTION_DDOT": 0}, "tle": {"line1": "1 33870U 97051AP  25359.14519668  .00002583  00000+0  71897-3 0  9999", "line2": "2 33870  86.3733  52.9428 0022642 138.8242 278.7833 14.45911312883162"}}, "geometry": {"type": "Point", "coordinates": [52.1476899278093, -10.629714220518402]}}, {"type": "Feature", "properties": {"norad_id": 33881, "name": "IRIDIUM 33 DEB", "group": "iridium-33-debris", "lat": -10.705799726594845, "lon": 100.55124060979205, "alt_km": 742.9367658710225, "timestamp": "2025-12-25T09:48:52.674406+00:00", "meta": {"OBJECT_NAME": "IRIDIUM 33 DEB", "OBJECT_ID": "1997-051BA", "EPOCH": "2025-12-24T19:37:00.349824", "MEAN_MOTION": 14.5678795, "ECCENTRICITY": 0.00611156, "INCLINATION": 86.3859, "RA_OF_ASC_NODE": 101.4931, "ARG_OF_PERICENTER": 135.6602, "MEAN_ANOMALY": 353.6404, "EPHEMERIS_TYPE": 0, "CLASSIFICATION_TYPE": "U", "NORAD_CAT_ID": 33881, "ELEMENT_SET_NO": 999, "REV_AT_EPOCH": 87676, "BSTAR": 0.0022055938, "MEAN_MOTION_DOT": 0.0001015, "MEAN_MOTION_DDOT": 0}, "tle": {"line1": "1 33881U 97051BA  25358.81736516  .00010150  00000+0  22056-2 0  9998", "line2": "2 33881  86.3859 101.4931 0061115 135.6602 353.6404 14.56787950876761"}}, "geometry": {"type": "Point", "coordinates": [100.55124060979205, -10.705799726594845]}}, {"type": "Feature", "properties": {"norad_id": 33884, "name": "IRIDIUM 33 DEB", "group": "iridium-33-debris", "lat": 13.240810073243663, "lon": -176.75803518151204, "alt_km": 639.692115042003, "timestamp": "2025-12-25T09:48:52.674416+00:00", "meta": {"OBJECT_NAME": "IRIDIUM 33 DEB", "OBJECT_ID": "1997-051BD", "EPOCH": "2025-12-25T01:10:47.472384", "MEAN_MOTION": 14.77671167, "ECCENTRICITY": 0.0008821, "INCLINATION": 86.3695, "RA_OF_ASC_NODE": 4.2604, "ARG_OF_PERICENTER": 274.8294, "MEAN_ANOMALY": 139.2318, "EPHEMERIS_TYPE": 0, "CLASSIFICATION_TYPE": "U", "NORAD_CAT_ID": 33884, "ELEMENT_SET_NO": 999, "REV_AT_EPOCH": 89029, "BSTAR": 0.0016802, "MEAN_MOTION_DOT": 0.00012067, "MEAN_MOTION_DDOT": 0}, "tle": {"line1": "1 33884U 97051BD  25359.04916056  .00012067  00000+0  16802-2 0  9997", "line2": "2 33884  86.3695   4.2604 0008821 274.8294 139.2318 14.77671167890298"}}, "geometry": {"type": "Point", "coordinates": [-176.75803518151204, 13.240810073243663]}}, {"type": "Feature", "properties": {"norad_id": 33886, "name": "IRIDIUM 33 DEB", "group": "iridium-33-debris", "lat": 2.778241590450401, "lon": 62.071721591993075, "alt_km": 783.5715176585882, "timestamp": "2025-12-25T09:48:52.674426+00:00", "meta": {"OBJECT_NAME": "IRIDIUM 33 DEB", "OBJECT_ID": "1997-051BF", "EPOCH": "2025-12-25T03:12:23.129856", "MEAN_MOTION": 14.36065835, "ECCENTRICITY": 0.001349, "INCLINATION": 86.3819, "RA_OF_ASC_NODE": 62.0117, "ARG_OF_PERICENTER": 197.7345, "MEAN_ANOMALY": 182.5588, "EPHEMERIS_TYPE": 0, "CLASSIFICATION_TYPE": "U", "NORAD_CAT_ID": 33886, "ELEMENT_SET_NO": 999, "REV_AT_EPOCH": 88230, "BSTAR": 0.00018625, "MEAN_MOTION_DOT": 5.62e-06, "MEAN_MOTION_DDOT": 0}, "tle": {"line1": "1 33886U 97051BF  25359.13360104  .00000562  00000+0  18625-3 0  9999", "line2": "2 33886  86.3819  62.0117 0013490 197.7345 182.5588 14.36065835882304"}}, "geometry": {"type": "Point", "coordinates": [62.071721591993075, 2.778241590450401]}}, {"type": "Feature", "properties": {"norad_id": 33887, "name": "IRIDIUM 33 DEB", "group": "iridium-33-debris", "lat": -7.780605060778249, "lon": -2.573898261901208, "alt_km": 775.778879511513, "timestamp": "2025-12-25T09:48:52.674437+00:00", "meta": {"OBJECT_NAME": "IRIDIUM 33 DEB", "OBJECT_ID": "1997-051BG", "EPOCH": "2025-12-25T01:50:13.201152", "MEAN_MOTION": 14.37231733, "ECCENTRICITY": 0.0005785, "INCLINATION": 86.3043, "RA_OF_ASC_NODE": 358.0753, "ARG_OF_PERICENTER": 179.6912, "MEAN_ANOMALY": 253.8578, "EPHEMERIS_TYPE": 0, "CLASSIFICATION_TYPE": "U", "NORAD_CAT_ID": 33887, "ELEMENT_SET_NO": 999, "REV_AT_EPOCH": 88342, "BSTAR": 0.00014792, "MEAN_MOTION_DOT": 4.6e-06, "MEAN_MOTION_DDOT": 0}, "tle": {"line1": "1 33887U 97051BG  25359.07654168  .00000460  00000+0  14792-3 0  9997", "line2": "2 33887  86.3043 358.0753 0005785 179.6912 253.8578 14.37231733883423"}}, "geometry": {"type": "Point", "coordinates": [-2.573898261901208, -7.780605060778249]}}, {"type": "Feature", "properties": {"norad_id": 33953, "name": "IRIDIUM 33 DEB", "group": "iridium-33-debris", "lat": -45.500750476425466, "lon": 44.589068510182415, "alt_km": 718.896210750856, "timestamp": "2025-12-25T09:48:52.674448+00:00", "meta": {"OBJECT_NAME": "IRIDIUM 33 DEB", "OBJECT_ID": "1997-051BN", "EPOCH": "2025-12-25T03:40:07.885056", "MEAN_MOTION": 14.55436981, "ECCENTRICITY": 0.0017572, "INCLINATION": 86.3831, "RA_OF_ASC_NODE": 48.3908, "ARG_OF_PERICENTER": 64.7421, "MEAN_ANOMALY": 349.0665, "EPHEMERIS_TYPE": 0, "CLASSIFICATION_TYPE": "U", "NORAD_CAT_ID": 33953, "ELEMENT_SET_NO": 999, "REV_AT_EPOCH": 88484, "BSTAR": 0.0011554, "MEAN_MOTION_DOT": 5.052e-05, "MEAN_MOTION_DDOT": 0}, "tle": {"line1": "1 33953U 97051BN  25359.15286904  .00005052  00000+0  11554-2 0  9993", "line2": "2 33953  86.3831  48.3908 0017572  64.7421 349.0665 14.55436981884843"}}, "geometry": {"type": "Point", "coordinates": [44.589068510182415, -45.500750476425466]}}, {"type": "Feature", "properties": {"norad_id": 33960, "name": "IRIDIUM 33 DEB", "group": "iridium-33-debris", "lat": 50.39626457268569, "lon": -71.91856963117436, "alt_km": 601.6144495474255, "timestamp": "2025-12-25T09:48:52.674458+00:00", "meta": {"OBJECT_NAME": "IRIDIUM 33 DEB", "OBJECT_ID": "1997-051BV", "EPOCH": "2025-12-24T19:16:49.587744", "MEAN_MOTION": 14.85784996, "ECCENTRICITY": 0.00071456, "INCLINATION": 86.2538, "RA_OF_ASC_NODE": 283.8251, "ARG_OF_PERICENTER": 41.1857, "MEAN_ANOMALY": 12.3181, "EPHEMERIS_TYPE": 0, "CLASSIFICATION_TYPE": "U", "NORAD_CAT_ID": 33960, "ELEMENT_SET_NO": 999, "REV_AT_EPOCH": 89046, "BSTAR": 0.003156851, "MEAN_MOTION_DOT": 0.0002755, "MEAN_MOTION_DDOT": 0}, "tle": {"line1": "1 33960U 97051BV  25358.80335171  .00027550  00000+0  31569-2 0  9998", "line2": "2 33960  86.2538 283.8251 0007145  41.1857  12.3181 14.85784996890461"}}, "geometry": {"type": "Point", "coordinates": [-71.91856963117436, 50.39626457268569]}}, {"type": "Feature", "properties": {"norad_id": 33966, "name": "IRIDIUM 33 DEB", "group": "iridium-33-debris", "lat": 1.656270050645058, "lon": -139.5151248971008, "alt_km": 724.2452225745183, "timestamp": "2025-12-25T09:48:52.674468+00:00", "meta": {"OBJECT_NAME": "IRIDIUM 33 DEB", "OBJECT_ID": "1997-051CB", "EPOCH": "2025-12-25T02:38:32.609760", "MEAN_MOTION": 14.49640372, "ECCENTRICITY": 0.0008753, "INCLINATION": 86.391, "RA_OF_ASC_NODE": 40.7177, "ARG_OF_PERICENTER": 149.9673, "MEAN_ANOMALY": 269.6279, "EPHEMERIS_TYPE": 0, "CLASSIFICATION_TYPE": "U", "NORAD_CAT_ID": 33966, "ELEMENT_SET_NO": 999, "REV_AT_EPOCH": 88621, "BSTAR": 0.00049069, "MEAN_MOTION_DOT": 1.906e-05, "MEAN_MOTION_DDOT": 0}, "tle": {"line1": "1 33966U 97051CB  25359.11009965  .00001906  00000+0  49069-3 0  9990", "line2": "2 33966  86.3910  40.7177 0008753 149.9673 269.6279 14.49640372886210"}}, "geometry": {"type": "Point", "coordinates": [-139.5151248971008, 1.656270050645058]}}, {"type": "Feature", "properties": {"norad_id": 34071, "name": "IRIDIUM 33 DEB", "group": "iridium-33-debris", "lat": -58.717665922776, "lon": -161.64039257078397, "alt_km": 741.204098398618, "timestamp": "2025-12-25T09:48:52.674479+00:00", "meta": {"OBJECT_NAME": "IRIDIUM 33 DEB", "OBJECT_ID": "1997-051CE", "EPOCH": "2025-12-25T00:25:57.741024", "MEAN_MOTION": 14.49517656, "ECCENTRICITY": 0.0009863, "INCLINATION": 86.345, "RA_OF_ASC_NODE": 12.4906, "ARG_OF_PERICENTER": 74.9125, "MEAN_ANOMALY": 285.317, "EPHEMERIS_TYPE": 0, "CLASSIFICATION_TYPE": "U", "NORAD_CAT_ID": 34071, "ELEMENT_SET_NO": 999, "REV_AT_EPOCH": 88512, "BSTAR": 0.00064466, "MEAN_MOTION_DOT": 2.491e-05, "MEAN_MOTION_DDOT": 0}, "tle": {"line1": "1 34071U 97051CE  25359.01802941  .00002491  00000+0  64466-3 0  9990", "line2": "2 34071  86.3450  12.4906 0009863  74.9125 285.3170 14.49517656885127"}}, "geometry": {"type": "Point", "coordinates": [-161.64039257078397, -58.717665922776]}}, {"type": "Feature", "properties": {"norad_id": 34077, "name": "IRIDIUM 33 DEB", "group": "iridium-33-debris", "lat": 63.04008475772565, "lon": 53.06563138365532, "alt_km": 668.500367969923, "timestamp": "2025-12-25T09:48:52.674489+00:00", "meta": {"OBJECT_NAME": "IRIDIUM 33 DEB", "OBJECT_ID": "1997-051CL", "EPOCH": "2025-12-25T03:14:00.034368", "MEAN_MOTION": 14.64988618, "ECCENTRICITY": 0.0008744, "INCLINATION": 86.3848, "RA_OF_ASC_NODE": 46.0463, "ARG_OF_PERICENTER": 358.5908, "MEAN_ANOMALY": 59.3441, "EPHEMERIS_TYPE": 0, "CLASSIFICATION_TYPE": "U", "NORAD_CAT_ID": 34077, "ELEMENT_SET_NO": 999, "REV_AT_EPOCH": 88514, "BSTAR": 0.0015691, "MEAN_MOTION_DOT": 8.432e-05, "MEAN_MOTION_DDOT": 0}, "tle": {"line1": "1 34077U 97051CL  25359.13472262  .00008432  00000+0  15691-2 0  9994", "line2": "2 34077  86.3848  46.0463 0008744 358.5908  59.3441 14.64988618885141"}}, "geometry": {"type": "Point", "coordinates": [53.06563138365532, 63.04008475772565]}}]}